{
    "links": {
        "self": "http://www.neowsapp.com/rest/v1/neo/3752901?api_key=iIulBulltgU6a56xZRHN4H3l9WmuAYTsLGpBGhQ2"
    },
    "id": "3752901",
    "neo_reference_id": "3752901",
    "name": "(2016 JK12)",
    "designation": "2016 JK12",
    "nasa_jpl_url": "http://ssd.jpl.nasa.gov/sbdb.cgi?sstr=3752901",
    "absolute_magnitude_h": 25.1,
    "estimated_diameter": {
        "kilometers": {
            "estimated_diameter_min": 0.0253837029,
            "estimated_diameter_max": 0.0567596853
        },
        "meters": {
            "estimated_diameter_min": 25.3837029364,
            "estimated_diameter_max": 56.7596852866
        },
        "miles": {
            "estimated_diameter_min": 0.0157726969,
            "estimated_diameter_max": 0.0352688224
        },
        "feet": {
            "estimated_diameter_min": 83.279867942,
            "estimated_diameter_max": 186.2194458756
        }
    },
    "is_potentially_hazardous_asteroid": false,
    "close_approach_data": [
        {
            "close_approach_date": "2012-05-03",
            "close_approach_date_full": "2012-May-03 06:42",
            "epoch_date_close_approach": 1336027320000,
            "relative_velocity": {
                "kilometers_per_second": "11.3467812296",
                "kilometers_per_hour": "40848.4124266734",
                "miles_per_hour": "25381.6149325627"
            },
            "miss_distance": {
                "astronomical": "0.0726785518",
                "lunar": "28.2719566502",
                "kilometers": "10872556.543964666",
                "miles": "6755893.3614817508"
            },
            "orbiting_body": "Earth"
        },
        {
            "close_approach_date": "2016-05-03",
            "close_approach_date_full": "2016-May-03 23:24",
            "epoch_date_close_approach": 1462317840000,
            "relative_velocity": {
                "kilometers_per_second": "10.9730813703",
                "kilometers_per_hour": "39503.0929332553",
                "miles_per_hour": "24545.685717333"
            },
            "miss_distance": {
                "astronomical": "0.0757950928",
                "lunar": "29.4842910992",
                "kilometers": "11338784.439332336",
                "miles": "7045593.9420687968"
            },
            "orbiting_body": "Earth"
        },
        {
            "close_approach_date": "2016-10-03",
            "close_approach_date_full": "2016-Oct-03 08:37",
            "epoch_date_close_approach": 1475483820000,
            "relative_velocity": {
                "kilometers_per_second": "11.3736264208",
                "kilometers_per_hour": "40945.0551149894",
                "miles_per_hour": "25441.6649407555"
            },
            "miss_distance": {
                "astronomical": "0.3034367774",
                "lunar": "118.0369064086",
                "kilometers": "45393495.578704138",
                "miles": "28206210.2132595844"
            },
            "orbiting_body": "Earth"
        },
        {
            "close_approach_date": "2020-05-04",
            "close_approach_date_full": "2020-May-04 13:19",
            "epoch_date_close_approach": 1588598340000,
            "relative_velocity": {
                "kilometers_per_second": "10.6868075436",
                "kilometers_per_hour": "38472.507156852",
                "miles_per_hour": "23905.3197942117"
            },
            "miss_distance": {
                "astronomical": "0.1055836578",
                "lunar": "41.0720428842",
                "kilometers": "15795090.313688886",
                "miles": "9814614.0112271868"
            },
            "orbiting_body": "Earth"
        }
    ],
    "orbital_data": {
        "orbit_id": "6",
        "orbit_determination_date": "2017-07-04 06:19:29",
        "first_observation_date": "2016-05-05",
        "last_observation_date": "2016-05-13",
        "data_arc_in_days": 8,
        "observations_used": 15,
        "orbit_uncertainty": "8",
        "minimum_orbit_intersection": ".0706848",
        "jupiter_tisserand_invariant": "5.184",
        "epoch_osculation": "2457514.5",
        "eccentricity": ".1528680617955861",
        "semi_major_axis": "1.213003111402431",
        "inclination": "20.48105168866317",
        "ascending_node_longitude": "219.8801850618735",
        "orbital_period": "487.9679510163008",
        "perihelion_distance": "1.027573676810326",
        "perihelion_argument": "51.8242967217599",
        "aphelion_distance": "1.398432545994536",
        "perihelion_time": "2457562.626613201799",
        "mean_anomaly": "324.4944289546818",
        "mean_motion": ".73775336935596",
        "equinox": "J2000",
        "orbit_class": {
            "orbit_class_type": "AMO",
            "orbit_class_description": "Near-Earth asteroid orbits similar to that of 1221 Amor",
            "orbit_class_range": "1.017 AU < q (perihelion) < 1.3 AU"
        }
    },
    "is_sentry_object": false
}